NORAD_CAT_ID,OBJECT_NAME,OBJECT_TYPE,EPOCH,MEAN_MOTION,ECCENTRICITY,INCLINATION,RA_OF_ASC_NODE,ARG_OF_PERICENTER,MEAN_ANOMALY,BSTAR,MEAN_MOTION_DOT,MEAN_MOTION_DDOT,TLE_LINE0,TLE_LINE1,TLE_LINE2,SEMIMAJOR_AXIS,PERIOD,APOGEE,PERIGEE,DECAYED
52503.0,STARLINK-3861,PAYLOAD,2022-11-08 10:11:20,15.088499100000002,0.0001848,53.2169,103.6284,54.5668,305.5497,8.1303e-05,1.006e-05,0.0,0 STARLINK-3861,1 52503U 22049BE  22312.42454381  .00001006  00000-0  81303-4 0  9999,2 52503  53.2169 103.6284 0001848  54.5668 305.5497 15.08849910 28921,6917.85,95.437,540.994,538.437,0.0
52503.0,STARLINK-3861,PAYLOAD,2022-11-08 16:32:52,15.08850783,0.000182,53.217,102.4388,54.7187,305.3975,8.893e-05,1.128e-05,0.0,0 STARLINK-3861,1 52503U 22049BE  22312.68950209  .00001128  00000-0  88930-4 0  9995,2 52503  53.2170 102.4388 0001820  54.7187 305.3975 15.08850783 28809,6917.847,95.437,540.971,538.453,0.0
52503.0,STARLINK-3861,PAYLOAD,2022-11-09 14:48:18,15.08825626,0.0001771999999999,53.2171,98.276,54.5762,305.5395,-6.9889e-05,-1.4e-05,0.0,0 STARLINK-3861,1 52503U 22049BE  22313.61687750 -.00001400  00000-0 -69889-4 0  9994,2 52503  53.2171  98.2760 0001772  54.5762 305.5395 15.08825626 28940,6917.924,95.438,541.015,538.563,0.0
52503.0,STARLINK-3861,PAYLOAD,2022-11-09 19:34:27,15.08829048,0.0001948,53.2177,97.3857,45.4064,314.7087,-8.7011e-05,-1.672e-05,0.0,0 STARLINK-3861,1 52503U 22049BE  22313.81559669 -.00001672  00000-0 -87011-4 0  9991,2 52503  53.2177  97.3857 0001948  45.4064 314.7087 15.08829048 29136,6917.9140000000025,95.438,541.126,538.431,0.0
52503.0,STARLINK-3861,PAYLOAD,2022-11-10 13:03:42,15.08824241,0.0002075,53.2183,94.1156,36.449,323.6643,-0.00016912,-2.978e-05,0.0,0 STARLINK-3861,1 52503U 22049BE  22314.54424614 -.00002978  00000-0 -16912-3 0  9994,2 52503  53.2183  94.1156 0002075  36.4490 323.6643 15.08824241 29086,6917.929,95.439,541.229,538.3580000000002,0.0
52503.0,STARLINK-3861,PAYLOAD,2022-11-10 16:14:29,15.08825903,0.0001832,53.2178,93.5191,47.4756,312.6391,-0.00013397,-2.419e-05,0.0,0 STARLINK-3861,1 52503U 22049BE  22314.67672471 -.00002419  00000-0 -13397-3 0  9998,2 52503  53.2178  93.5191 0001832  47.4756 312.6391 15.08825903 29106,6917.9230000000025,95.438,541.056,538.521,0.0
52503.0,STARLINK-3861,PAYLOAD,2022-11-11 04:57:34,15.08821431,0.0001835,53.2178,91.1399,49.2131,310.902,2.4471e-05,1.01e-06,0.0,0 STARLINK-3861,1 52503U 22049BE  22315.20664521  .00000101  00000-0  24471-4 0  9995,2 52503  53.2178  91.1399 0001835  49.2131 310.9020 15.08821431 29348,6917.937,95.439,541.072,538.533,0.0
52503.0,STARLINK-3861,PAYLOAD,2022-11-11 12:54:29,15.08825989,0.0001836,53.2179,89.6532,50.557,309.5584,6.1565e-05,6.91e-06,0.0,0 STARLINK-3861,1 52503U 22049BE  22315.53784502  .00000691  00000-0  61565-4 0  9992,2 52503  53.2179  89.6532 0001836  50.5570 309.5584 15.08825989 29232,6917.9230000000025,95.438,541.058,538.518,0.0
52503.0,STARLINK-3861,PAYLOAD,2022-11-11 17:40:39,15.08828029,0.0001925,53.2178,88.7611,48.6699,311.4459,0.00020349,2.951e-05,0.0,0 STARLINK-3861,1 52503U 22049BE  22315.73656293  .00002951  00000-0  20349-3 0  9994,2 52503  53.2178  88.7611 0001925  48.6699 311.4459 15.08828029 29420,6917.917,95.438,541.114,538.45,0.0
52503.0,STARLINK-3861,PAYLOAD,2022-11-12 14:20:40,15.08828618,0.0001994,53.2177,84.8958,46.5214,313.5944,0.00021143,3.077e-05,0.0,0 STARLINK-3861,1 52503U 22049BE  22316.59769037  .00003077  00000-0  21143-3 0  9993,2 52503  53.2177  84.8958 0001994  46.5214 313.5944 15.08828618 29398,6917.915,95.438,541.16,538.401,0.0
52503.0,STARLINK-3861,PAYLOAD,2022-11-13 03:03:45,15.08838514,0.0001873,53.2176,82.5168,48.7392,311.3762,0.0002083,3.028e-05,0.0,0 STARLINK-3861,1 52503U 22049BE  22317.12760594  .00003028  00000-0  20830-3 0  9990,2 52503  53.2176  82.5168 0001873  48.7392 311.3762 15.08838514 29639,6917.885,95.438,541.0459999999998,538.4540000000002,0.0
52503.0,STARLINK-3861,PAYLOAD,2022-11-13 11:00:41,15.0883577,0.0001786999999999,53.2177,81.0293,48.9457,311.1689,0.00010246,1.343e-05,0.0,0 STARLINK-3861,1 52503U 22049BE  22317.45881125  .00001343  00000-0  10246-3 0  9998,2 52503  53.2177  81.0293 0001787  48.9457 311.1689 15.08835770 29526,6917.893,95.438,540.995,538.5219999999998,0.0
52503.0,STARLINK-3861,PAYLOAD,2022-11-13 15:46:50,15.08842132,0.0001963,53.2177,80.1382,43.5668,316.5479,0.00013172,1.809e-05,0.0,0 STARLINK-3861,1 52503U 22049BE  22317.65752743  .00001809  00000-0  13172-3 0  9991,2 52503  53.2177  80.1382 0001963  43.5668 316.5479 15.08842132 29555,6917.874,95.437,541.097,538.381,0.0
52503.0,STARLINK-3861,PAYLOAD,2022-11-14 02:54:32,15.08838149,0.0001874,53.2177,78.0564,44.2671,315.8471,3.893e-05,3.31e-06,0.0,0 STARLINK-3861,1 52503U 22049BE  22318.12121146  .00000331  00000-0  38930-4 0  9990,2 52503  53.2177  78.0564 0001874  44.2671 315.8471 15.08838149 29788,6917.886,95.438,541.047,538.455,0.0
52503.0,STARLINK-3861,PAYLOAD,2022-11-14 10:51:28,15.08840005,0.0001841,53.2179,76.5696,45.0827,315.0314,8.9536e-05,1.137e-05,0.0,0 STARLINK-3861,1 52503U 22049BE  22318.45240879  .00001137  00000-0  89536-4 0  9994,2 52503  53.2179  76.5696 0001841  45.0827 315.0314 15.08840005 29675,6917.88,95.438,541.019,538.472,0.0
52503.0,STARLINK-3861,PAYLOAD,2022-11-14 17:13:00,15.08845377,0.0001845,53.2181,75.3804,41.7825,318.3307,7.7649e-05,9.48e-06,0.0,0 STARLINK-3861,1 52503U 22049BE  22318.71736549  .00000948  00000-0  77649-4 0  9998,2 52503  53.2181  75.3804 0001845  41.7825 318.3307 15.08845377 29711,6917.864000000001,95.437,541.005,538.453,0.0
52503.0,STARLINK-3861,PAYLOAD,2022-11-15 02:45:19,15.08837554,0.0001799,53.2183,73.5963,37.0722,323.0394,3.7692e-05,3.12e-06,0.0,0 STARLINK-3861,1 52503U 22049BE  22319.11480985  .00000312  00000-0  37692-4 0  9992,2 52503  53.2183  73.5963 0001799  37.0722 323.0394 15.08837554 29932,6917.888000000001,95.438,540.997,538.508,0.0
52503.0,STARLINK-3861,PAYLOAD,2022-11-15 13:53:01,15.08835691,0.0002012,53.2182,71.5156,36.9691,323.144,2.4502e-05,1.02e-06,0.0,0 STARLINK-3861,1 52503U 22049BE  22319.57849304  .00000102  00000-0  24502-4 0  9999,2 52503  53.2182  71.5156 0002012  36.9691 323.1440 15.08835691 29848,6917.894,95.438,541.15,538.367,0.0
52503.0,STARLINK-3861,PAYLOAD,2022-11-16 13:43:48,15.08844449,0.0001987,53.2178,67.0538,44.4254,315.6898,5.3738e-05,5.67e-06,0.0,0 STARLINK-3861,1 52503U 22049BE  22320.57208536  .00000567  00000-0  53738-4 0  9995,2 52503  53.2178  67.0538 0001987  44.4254 315.6898 15.08844449 30156,6917.8669999999975,95.437,541.106,538.357,0.0
52503.0,STARLINK-3861,PAYLOAD,2022-11-17 13:34:35,15.08843462,0.0002173,53.2177,62.596,38.0566,322.0579,-8.7675e-05,-1.684e-05,0.0,0 STARLINK-3861,1 52503U 22049BE  22321.56568938 -.00001684  00000-0 -87675-4 0  9990,2 52503  53.2177  62.5960 0002173  38.0566 322.0579 15.08843462 30148,6917.87,95.437,541.238,538.232,0.0
52503.0,STARLINK-3861,PAYLOAD,2022-11-18 10:14:36,15.088316699999998,0.0002062,53.2189,58.7278,41.8464,318.2686,6.082100000000001e-05,6.8e-06,0.0,0 STARLINK-3861,1 52503U 22049BE  22322.42681406  .00000680  00000-0  60821-4 0  9999,2 52503  53.2189  58.7278 0002062  41.8464 318.2686 15.08831670 30432,6917.906,95.438,541.197,538.344,0.0
52503.0,STARLINK-3861,PAYLOAD,2022-11-19 02:08:27,15.08842939,0.0002088,53.2184,55.7556,36.1903,323.923,0.00012835,1.755e-05,0.0,0 STARLINK-3861,1 52503U 22049BE  22323.08920555  .00001755  00000-0  12835-3 0  9998,2 52503  53.2184  55.7556 0002088  36.1903 323.9230 15.08842939 30535,6917.871,95.437,541.181,538.2919999999998,0.0
52503.0,STARLINK-3861,PAYLOAD,2022-11-19 08:30:00,15.08834664,0.0002161,53.2185,54.566,34.8964,325.2169,6.0742e-05,6.78e-06,0.0,0 STARLINK-3861,1 52503U 22049BE  22323.35417318  .00000678  00000-0  60742-4 0  9990,2 52503  53.2185  54.5660 0002161  34.8964 325.2169 15.08834664 30412,6917.897,95.438,541.257,538.2669999999998,0.0
52503.0,STARLINK-3861,PAYLOAD,2022-11-20 11:31:33,15.08839876,0.0001986,53.2187,49.5101,40.1776,319.9362,5.9509e-05,6.59e-06,0.0,0 STARLINK-3861,1 52503U 22049BE  22324.48024886  .00000659  00000-0  59509-4 0  9997,2 52503  53.2187  49.5101 0001986  40.1776 319.9362 15.08839876 30744,6917.880999999999,95.438,541.12,538.372,0.0
52503.0,STARLINK-3861,PAYLOAD,2022-11-20 16:17:43,15.08829496,0.00025,53.2192,48.6217,35.7191,324.3968,3.3384000000000004e-05,2.43e-06,0.0,0 STARLINK-3861,1 52503U 22049BE  22324.67897872  .00000243  00000-0  33384-4 0  9993,2 52503  53.2192  48.6217 0002500  35.7191 324.3968 15.08829496 30617,6917.9119999999975,95.438,541.507,538.048,0.0
52503.0,STARLINK-3861,PAYLOAD,2022-11-20 22:39:16,15.08831757,0.0002116,53.2187,47.4305,34.1084,326.0044,-6.8852e-05,-1.384e-05,0.0,0 STARLINK-3861,1 52503U 22049BE  22324.94393958 -.00001384  00000-0 -68852-4 0  9996,2 52503  53.2187  47.4305 0002116  34.1084 326.0044 15.08831757 30812,6917.906,95.438,541.234,538.307,0.0
52503.0,STARLINK-3861,PAYLOAD,2022-11-21 09:46:57,15.08837334,0.0002114,53.219,45.3482,32.9301,327.1823,2.1418e-05,5.3e-07,0.0,0 STARLINK-3861,1 52503U 22049BE  22325.40761430  .00000053  00000-0  21418-4 0  9999,2 52503  53.2190  45.3482 0002114  32.9301 327.1823 15.08837334 30886,6917.889,95.438,541.216,538.2909999999998,0.0
52503.0,STARLINK-3861,PAYLOAD,2022-11-21 11:22:20,15.08837829,0.0002155,53.2187,45.0507,35.4048,324.7087,4.9288e-05,4.96e-06,0.0,0 STARLINK-3861,1 52503U 22049BE  22325.47385377  .00000496  00000-0  49288-4 0  9994,2 52503  53.2187  45.0507 0002155  35.4048 324.7087 15.08837829 30736,6917.887,95.438,541.243,538.261,0.0
52503.0,STARLINK-3861,PAYLOAD,2022-11-21 14:33:05,15.0890335,0.0002261,53.2188,44.4562,28.5151,331.5965,-0.00073207,-0.00011941,0.0,0 STARLINK-3861,1 52503U 22049BE  22325.60631689 -.00011941  00000-0 -73207-3 0  9995,2 52503  53.2188  44.4562 0002261  28.5151 331.5965 15.08903350 30911,6917.687,95.434,541.116,537.988,0.0
